OBJECT_NAME,OBJECT_ID,EPOCH,MEAN_MOTION,ECCENTRICITY,INCLINATION,RA_OF_ASC_NODE,ARG_OF_PERICENTER,MEAN_ANOMALY,EPHEMERIS_TYPE,CLASSIFICATION_TYPE,NORAD_CAT_ID,ELEMENT_SET_NO,REV_AT_EPOCH,BSTAR,MEAN_MOTION_DOT,MEAN_MOTION_DDOT
FLOCK 4G-1,2025-009BK,2026-07-15T18:39:51.207264,15.30195779,.00040651,97.4023,278.6704,196.5571,163.5537,0,U,62666,999,8328,.21519236E-3,.6211E-4,0
FLOCK 4G-14,2025-009BL,2026-07-16T04:50:03.570144,15.29746916,.0004299,97.4024,278.8885,190.1511,169.9643,0,U,62667,999,8333,.19643E-3,.5585E-4,0
JAY-C,2025-009BM,2026-07-16T04:03:48.930048,15.22526597,.0003283,97.3956,275.6339,219.3153,140.7845,0,U,62668,999,14078,.80799E-4,.1804E-4,0
JAY-D1,2025-009BN,2026-07-16T04:02:35.765664,15.22526733,.0003966,97.4026,276.1006,226.0230,134.0679,0,U,62669,999,14078,.82796E-4,.185E-4,0
FLOCK 4G-10,2025-009BP,2026-07-16T05:05:40.655904,15.29849445,.0003785,97.3922,278.1957,208.7841,151.3191,0,U,62670,999,14097,.19097E-3,.5444E-4,0
SKYBEE-A01,2025-009BQ,2026-07-16T03:53:27.809088,15.21133667,.0004195,97.3982,275.2343,217.1974,142.8972,0,U,62671,999,14074,.59287E-4,.1251E-4,0
TRANSPORTER-12 OBJECT BR,2025-009BR,2026-07-16T04:51:51.388704,15.23149081,.0003611,97.3950,275.8638,214.9048,145.1952,0,U,62672,999,14080,.8807E-4,.201E-4,0
LEO EXPRESS 2,2025-009BS,2026-07-15T05:07:32.467872,15.25482534,.0003156,97.3228,269.6786,95.2840,264.8759,0,U,62673,999,14086,.14717E-3,.3655E-4,0
TRANSPORTER-12 OBJECT BT,2025-009BT,2026-07-16T05:10:14.411712,15.30721373,.0004576,97.4056,279.5869,190.4999,169.6147,0,U,62674,999,14100,.19733E-3,.5783E-4,0
FLOCK 4G-36,2025-009BU,2026-07-16T04:57:49.278240,15.29823665,.0004436,97.4012,278.8155,196.0546,164.0555,0,U,62675,999,8333,.19711E-3,.5617E-4,0
FOSSASAT-2E19 (TAT-E),2025-009BV,2026-07-15T04:43:02.359776,15.21278860,.0003909,97.3955,273.9753,226.5203,133.5708,0,U,62676,999,8295,.65456363E-4,.1395E-4,0
ELEVATION-1,2025-009BW,2026-07-15T19:00:48.237408,15.43436129,.00044041,97.3821,282.3738,191.1182,168.9969,0,U,62677,999,14123,.41156201E-3,.18342E-3,0
FLOCK 4G-15,2025-009BX,2026-07-16T05:07:43.154688,15.29913956,.0004679,97.4015,278.9652,193.3435,166.7682,0,U,62678,999,14098,.20493E-3,.586E-4,0
FLOCK 4G-30,2025-009BY,2026-07-16T03:42:16.602048,15.33996941,.0004426,97.3917,278.4333,193.3027,166.8100,0,U,62679,999,14098,.72393E-3,.23785E-3,0
FLOCK 4G-18,2025-009BZ,2026-07-16T04:04:34.316832,15.32245398,.0006242,97.4010,278.8430,207.5239,152.5673,0,U,62680,999,14097,.632E-3,.19637E-3,0
FLOCK 4G-17,2025-009CA,2026-07-16T02:37:11.843040,15.30094714,.0004182,97.3920,278.3311,209.4967,150.6039,0,U,62681,999,14097,.21285E-3,.6124E-4,0
FOREST-3,2025-009CB,2026-07-16T04:02:13.364736,15.25136045,.0003842,97.3894,276.2592,225.1654,134.9272,0,U,62682,999,14085,.14427E-3,.3543E-4,0
IRIS-F2,2025-009CD,2026-07-15T18:29:57.412896,15.27393462,.0004438,97.3889,276.2662,233.6332,126.4498,0,U,62684,999,14082,.33903324E-3,.9023E-4,0
FLOCK 4G-33,2025-009CE,2026-07-16T00:59:44.070720,15.25804274,.0004778,97.3945,276.5861,210.5284,149.5677,0,U,62685,999,8320,.13276E-3,.3321E-4,0
FOSSASAT-2E18 (TAT-A),2025-009CF,2026-07-16T03:23:31.280064,15.21177306,.0004804,97.3967,274.9656,222.8442,137.2420,0,U,62686,999,8309,.65114E-4,.1383E-4,0
BLUEBON,2025-009CH,2026-07-16T04:52:52.011264,15.31173412,.0001493,97.3985,280.2156,157.6099,202.5208,0,U,62688,999,8341,.14157E-3,.4185E-4,0
TRANSPORTER-12 OBJECT CL,2025-009CL,2026-07-15T04:23:45.260736,15.48139214,.0003639,97.3760,281.8808,134.8346,225.3201,0,U,62691,999,8352,.4947E-3,.25939E-3,0
LEMUR-2-WILSON,2025-009CP,2026-07-16T03:19:44.256288,14.95277841,.0001954,97.7020,275.0959,319.6157,40.4919,0,U,62694,999,8168,.69249E-4,.706E-5,0
CONNECTA IOT-8,2025-009CQ,2026-07-16T02:53:22.763040,14.93248665,.0001283,97.7072,274.3965,252.9572,107.1507,0,U,62695,999,8161,.27058E-4,.227E-5,0
LEMUR-2-STAR-FOX,2025-009CR,2026-07-16T04:36:43.385184,15.02847456,.0002077,97.6906,278.5926,38.2858,321.8515,0,U,62696,999,8191,.2516E-3,.3311E-4,0
IRIDE-MS2-HEO-1,2025-009CS,2026-07-16T03:38:34.065888,14.94493547,.0000809,97.7036,274.9195,255.3778,104.7352,0,U,62697,999,8166,.1003E-3,.1026E-4,0
ICEYE-X42,2025-009CT,2026-07-16T04:22:28.070112,14.91855994,.0001283,97.7390,274.9743,97.5007,262.6357,0,U,62698,999,8161,.94548E-4,.899E-5,0
LEMUR-2-ARIANNA,2025-009CU,2026-07-16T04:34:30.813888,15.02849743,.0002441,97.6848,278.3426,45.4866,314.6558,0,U,62699,999,8191,.26779E-3,.3528E-4,0
ICEYE-X41,2025-009CV,2026-07-16T03:35:12.823008,14.96915296,.0000245,97.7059,276.2559,264.1742,95.9452,0,U,62700,999,8174,.13477E-3,.149E-4,0
FIREFLY-1,2025-009CW,2026-07-16T04:27:19.857600,14.92742372,.0002655,97.7061,274.7138,218.7773,141.3256,0,U,62701,999,8164,.48781E-4,.448E-5,0
NORSAT 4,2025-009CX,2026-07-16T03:47:36.117888,14.95137370,.0000571,97.7040,275.3575,11.5311,348.5923,0,U,62702,999,8169,.10712E-3,.1119E-4,0
CONNECTA IOT-5,2025-009CY,2026-07-16T03:31:12.184320,14.94212268,.0001806,97.7020,275.1910,6.6071,353.5173,0,U,62703,999,8169,.43594E-4,.411E-5,0
FIREFLY-2,2025-009CZ,2026-07-16T03:55:31.318752,14.92736654,.00063,97.7018,274.4614,359.8290,0.2926,0,U,62704,999,8164,.76184E-4,.731E-5,0
ICEYE-X45,2025-009DA,2026-07-16T03:09:04.866048,15.00845987,.0001203,97.8417,284.0560,92.0836,268.0525,0,U,62705,999,8202,.37578E-3,.4717E-4,0
LEMUR-2-ALISIA,2025-009DB,2026-07-16T03:54:24.355296,15.03183137,.0004421,97.6971,279.1419,126.4435,233.7199,0,U,62706,999,10451,.29439E-3,.392E-4,0
ICEYE-X44,2025-009DC,2026-07-16T02:41:35.297376,14.96170736,.0002462,97.7059,275.7819,70.6232,289.5255,0,U,62707,999,10426,.15471E-3,.1685E-4,0
CENTAURI-7,2025-009DD,2026-07-16T02:52:54.759072,14.97977527,.0002668,97.7102,277.0293,100.9117,259.2406,0,U,62708,999,8179,.13854E-3,.1576E-4,0
CONNECTA IOT-6,2025-009DE,2026-07-16T02:58:24.220416,14.94267388,.0002709,97.7022,274.9420,67.2496,292.9011,0,U,62709,999,8168,.23366E-4,.195E-5,0
FIREFLY-3,2025-009DF,2026-07-16T05:00:28.160064,14.92801011,.0004724,97.7052,274.7660,71.0826,289.0905,0,U,62710,999,8166,.47047E-4,.431E-5,0
LEMUR-2-ROUNDTRIPPER,2025-009DG,2026-07-16T04:00:53.957952,15.04240391,.0004488,97.7251,279.8114,62.0486,298.1193,0,U,62711,999,8198,.31136E-3,.4268E-4,0
LEMUR-2-MYNAMEISJEFF,2025-009DH,2026-07-15T18:23:59.378208,15.04228449,.0004115,97.7301,279.8094,96.2499,263.9195,0,U,62712,999,8192,.32837E-3,.4503E-4,0
SATGUS,2025-009DJ,2026-07-16T02:55:45.306624,15.01527839,.0005393,97.6862,278.2117,40.2639,319.8984,0,U,62713,999,8190,.27842E-3,.3544E-4,0
CENTAURI-8,2025-009DK,2026-07-16T03:34:15.219264,14.97928811,.0002468,97.7037,276.8777,77.7326,282.4172,0,U,62714,999,8181,.12481E-3,.1413E-4,0
CONNECTA IOT-7,2025-009DL,2026-07-16T00:47:18.227904,14.94230082,.0002921,97.7077,275.2640,96.6785,263.4768,0,U,62715,999,8165,.78367E-4,.784E-5,0
PRSC-EO1,2025-012A,2026-07-16T04:50:55.473216,15.17628496,.0006857,97.4215,269.0929,143.6236,216.5465,0,U,62725,999,8259,.18325E-3,.3621E-4,0
2025-012B,2025-012B,2026-07-16T04:56:45.343104,15.21454032,.0009527,97.4223,269.8670,165.1254,195.0264,0,U,62726,999,8266,.11596E-3,.2538E-4,0
2025-012C,2025-012C,2026-07-16T04:05:00.783744,15.28062122,.000852,97.4252,272.5718,155.3514,204.8134,0,U,62727,999,8281,.20532E-3,.5549E-4,0
2025-013A,2025-013A,2026-07-16T03:52:51.820896,15.36795259,.0009233,97.6386,16.8956,185.8597,174.2540,0,U,62729,999,8240,.53876E-3,.19338E-3,0
2025-013B,2025-013B,2026-07-16T04:59:16.149120,15.11481597,.001178,97.6584,6.6263,269.7447,90.2433,0,U,62730,999,8171,.10603E-3,.173E-4,0
2025-013C,2025-013C,2026-07-16T04:39:45.754848,15.11447455,.0012615,97.6533,6.2956,273.4745,86.5041,0,U,62731,999,8171,.96467E-4,.1567E-4,0
2025-013D,2025-013D,2026-07-16T03:34:33.377088,15.11502457,.0007068,97.6570,6.5937,294.4832,65.5660,0,U,62732,999,8165,.10475E-3,.1708E-4,0
2025-013E,2025-013E,2026-07-16T05:19:11.892288,15.11242229,.0006967,97.6586,6.6044,279.3833,80.6609,0,U,62733,999,8160,.1024E-3,.1656E-4,0
STARLINK-32806,2025-014A,2026-07-16T03:55:00.873984,15.27568559,.0002191,42.9996,149.0237,261.6645,98.3959,0,U,62735,999,8290,.47239E-3,.12755E-3,0
STARLINK-32329,2025-014B,2026-07-15T21:10:38.076960,15.27581504,.0000697,42.9992,150.3476,20.2449,339.8431,0,U,62736,999,8286,.48718E-3,.13169E-3,0
STARLINK-32774,2025-014C,2026-07-16T04:44:04.331040,15.27590630,.0001504,43.0025,151.8782,276.2041,83.8639,0,U,62737,999,8287,.30218E-3,.8065E-4,0
STARLINK-32802,2025-014D,2026-07-16T04:31:48.823392,15.27592250,.0001562,43.0025,148.3479,272.4107,87.6565,0,U,62738,999,8291,.33933E-3,.909E-4,0
STARLINK-32796,2025-014E,2026-07-16T04:28:07.150368,15.27577011,.000119,43.0029,148.3319,276.3383,83.7333,0,U,62739,999,8291,.27031E-3,.7183E-4,0
STARLINK-32805,2025-014F,2026-07-16T04:17:13.606080,15.27585521,.0001636,43.0046,149.1432,274.0205,86.0460,0,U,62740,999,8290,.33166E-3,.8877E-4,0
STARLINK-32770,2025-014G,2026-07-16T04:46:37.409376,15.27579822,.0001508,43.0022,148.4309,270.4696,89.5983,0,U,62741,999,8291,.29338E-3,.782E-4,0
STARLINK-32775,2025-014H,2026-07-16T03:29:07.026144,15.27579335,.0001207,42.9998,148.8837,268.1444,91.9270,0,U,62742,999,8290,.10324E-3,.258E-4,0
STARLINK-32800,2025-014J,2026-07-15T06:23:12.525216,15.27565095,.00012624,43.0002,161.2461,261.4994,98.5715,0,U,62743,999,8268,.26371067E-3,.6998E-4,0
STARLINK-32758,2025-014K,2026-07-15T21:11:47.819040,15.27580778,.0001102,42.9990,153.8234,3.9183,356.1677,0,U,62744,999,8282,.46615E-3,.12588E-3,0
STARLINK-32746,2025-014L,2026-07-15T22:05:56.282784,15.27585069,.0001306,43.0004,149.7760,266.9809,93.0893,0,U,62745,999,8287,.36763E-3,.9869E-4,0
STARLINK-32780,2025-014M,2026-07-15T21:58:45.130368,15.27589289,.0000172,43.0000,150.6037,43.2711,316.8154,0,U,62746,999,8286,.26336E-3,.6994E-4,0
STARLINK-32765,2025-014N,2026-07-15T07:19:53.362272,15.27589819,.00009291,42.9990,153.7579,288.0697,72.0054,0,U,62747,999,8277,.42059707E-3,.11333E-3,0
STARLINK-32762,2025-014P,2026-07-16T04:47:46.131936,15.27590949,.0001808,43.0061,151.8890,310.3881,49.6813,0,U,62748,999,8287,.34787E-3,.9326E-4,0
